#dP2019  6 25  0  0  0.00000000      96 __u+U IGS08 FIT  IAC
## 2059 172800.00000000   900.00000000 58659 0.0000000000000
+   98   C01C02C03C04C05C06C07C08C09C10C11C12C13C14C16E01E02
+        E03E04E05E07E08E09E11E12E13E14E15E18E19E21E24E25E26
+        E27E30E31E33E36G01G02G03G05G06G07G08G09G10G11G12G13
+        G14G15G16G17G18G19G20G21G22G23G24G25G26G27G28G29G30
+        G31G32J01J02J03J07R01R02R03R04R05R07R08R09R10R11R12
+        R13R14R15R16R17R18R19R20R21R22R23R24R26  0  0  0  0
++        13 12 13 13 12  8  9  8  8  8  7  7  8  7  8  4  4
++         5  4  4  5  4  5  4  4  4  5  4  4  4  4  4  4  4
++         4  4  5  5  5  3  3  3  3  3  3  3  3  3  3  3  3
++         3  3  3  3  5  3  3  3  3  3  3  3  3  3  3  3  3
++         3  3  8  8  9 16  7  5  5  5  5  5  5  7  5  7  5
++         6  5  5  7  5  5  6  6  5  5  5  6  8  0  0  0  0
%c M  cc GPS ccc cccc cccc cccc cccc ccccc ccccc ccccc ccccc
%c cc cc ccc ccc cccc cccc cccc cccc ccccc ccccc ccccc ccccc
%f  1.2500000  1.025000000  0.00000000000  0.000000000000000
%f  0.0000000  0.000000000  0.00000000000  0.000000000000000
%i    0    0    0    0      0      0      0      0         0
%i    0    0    0    0      0      0      0      0         0
/* INFORMATION & ANALYSIS CENTER (IAC)            FINAL DATA
/* S/V CLOCKS ARE ALIGNED TO GPS & GLONASS TIME RESPECTIVELY
/* USING THE BROADCAST EPHEMERIS                            
/* PCV:IGS14_2056 OL/AL:FES2004  NONE     YN ORB:CoN CLK:CoN
*  2019 06 25 20 15  0.00000000
PC01 -32340.672976  27075.719419    -17.542465    758.821754
PC02   4392.847307  41914.730479   -871.871632     74.019439
PC03 -14720.606275  39508.814988   -641.221028    615.169912
PC04 -39631.096650  14418.094376   -300.598087    153.975257
PC05  21917.642497  36010.362573   -569.420456   -302.654699
PC06 -24257.630323  29543.042285  17727.437872    595.358135
PC07 -11565.556489  36303.056425  18708.744592    121.722181
PC08  -9774.635066  19494.041691 -36014.845428    166.820781
PC09  -9609.996325  29004.940420  29137.477280    869.979761
PC10     15.095046  42113.900225   4951.137049   -877.716320
PC11 -27078.219820   -845.616841   6868.449904    257.682516
PC12  -4746.358624 -14808.865565  23233.203077    801.154329
PC13   4292.608160  26309.141487 -32543.909441   -801.078192
PC14 -12273.028412 -11503.927851 -22203.291522    551.262783
PC16 -21987.962158  29958.706778  19795.454518   -907.127157
PE01  17150.659164   2593.437528 -23987.603762   -633.894013
PE02 -17138.464994  -2519.742790  23999.992697     66.465086
PE03 -23438.095359   6958.371334 -16687.741062   -181.383837
PE04  20538.036882 -21311.918274   -350.672342   -310.378218
PE05 -12617.020763 -11627.103097 -24110.942514   -471.904025
PE07  -5513.378389  23313.958532  17406.804338   -214.330407
PE08 -20304.934940  21543.545855    488.077751   6333.968503
PE09   5375.638462 -23256.186094 -17481.599621   6397.771164
PE11  -4091.069145 -17229.389478  23705.864699   5668.867617
PE12  17831.348402 -10204.648819  21315.511191   6328.757909
PE13   4058.186766  17129.488760 -23797.187419    389.061466
PE14 -14981.115415  -8254.349509  16303.737807   -619.170762
PE15 -17412.679937  10432.444041 -21538.871075    905.496249
PE18  16046.054972  14840.785643 -23974.367594   -715.346570
PE19  22847.231046  -5222.861828  18093.063437     -5.550779
PE21  14931.333072  22237.996066 -12612.812822   -540.938936
PE24  -3891.462920 -28754.660484  -5885.673720   6009.617235
PE25 -14905.664368 -22271.307888  12561.523834   1761.943933
PE26  23112.106816  14056.645246 -12018.512096   4411.887545
PE27   3874.785951  28694.657213   6163.853665    441.817647
PE30  -9434.018333  18452.542474  21124.699932   4761.023384
PE31   9424.708251 -18289.809708 -21269.993571   -465.944009
PE33  28747.384696   2394.606352   6659.964480   -469.894325
PE36 -23206.194429 -13807.427755  12116.625233    695.233735
PG01  22563.480430  14280.793994   1188.511748    -50.529492
PG02  -8080.223607 -18946.171717  17458.029873   -245.808374
PG03  13033.795525  11920.194290  19822.242695    184.150101
PG05  -2915.478602 -25744.855797  -5446.619964      0.369813
PG06   6511.296722 -13511.686301  21958.340218    167.660348
PG07  22510.994049   3713.303033 -13725.618225    -51.761647
PG08  12494.291865   9946.347470 -21229.393532   -148.809965
PG09  24639.400479  -7051.474459   6954.948892    384.157503
PG10 -11421.171093  18767.686763 -14715.999412      4.552451
PG11  23039.141326  10083.286167  -8653.214781   -576.141274
PG12 -10807.861774 -14887.828279  19003.656764    229.772453
PG13  -2175.061603 -15152.367516 -21809.813139    -57.443332
PG14 -12868.511280  17128.129369  15905.573538    -74.428576
PG15 -14542.207166  -9156.508924 -20597.322434   -304.830126
PG16    209.538257  25655.661277  -6103.235659    -51.036035
PG17  19657.675971 -15296.417393   9501.614925     77.881098
PG18  18417.881287  17669.071487  -8079.675480     64.883283
PG19  15113.363783 -16048.131746  14555.423473   -302.061523
PG20 -14369.659824   9980.019795 -20046.748064    525.602522
PG21 -19935.367005   2078.170306 -16554.109933   -166.352676
PG22  11598.453675  18624.045391  15260.078904   -722.341121
PG23  20331.157337   3572.911107  17268.225770   -180.134664
PG24 -22086.206532 -14947.966127  -2135.617833    -67.965333
PG25 -14912.507260   -461.478028  21757.209983   -768.669441
PG26  -4567.895289  25575.004146   5025.239448    235.933982
PG27   -432.918485  16115.750522 -21158.199204   -167.655266
PG28  12477.376463 -18202.002710 -14247.222898    767.151010
PG29 -24266.399639   2565.003528  10468.445236    167.307142
PG30  16381.134712  -6111.298797 -20021.028199   -130.903452
PG31  -5657.685783  14447.325509  21508.857231     28.599864
PG32 -18358.035240  16670.300362   9407.067992    -28.445491
PJ01 -23579.061760  32205.010360  -9028.953650   -282.194866
PJ02 -24118.342625  23057.937602  30599.262998     -0.577492
PJ03 -34652.383752  21213.144161  -6359.447907      1.271282
PJ07 -25328.684558  33717.692108     -0.196232     -0.019203
PR01  14586.017113  -5260.613484  20256.242497     45.865040
PR02  14883.968077 -20421.389170   3717.805167    375.297922
PR03   5583.915159 -21012.403362 -13331.078229     -2.699247
PR04  -7282.061027  -8851.882544 -22766.817354    311.471747
PR05 -15201.270697   7502.406603 -19036.901666     30.731331
PR07  -5141.921486  20772.199181  13895.537519    -22.377050
PR08   6822.238573   9531.638125  22712.178470     17.057414
PR09  -3445.432069  14799.098268  20523.674232     76.925995
PR10   6703.878727  22681.471749   9647.433819     52.985684
PR11  14781.754537  18941.018028  -8631.206404    -70.643833
PR12  13786.688236   4981.676953 -20843.575905     38.048220
PR13   4479.679808 -12972.554985 -21515.619861    -25.261008
PR14  -6886.310036 -22641.758100  -9482.088536     40.296329
PR15 -14514.262115 -19438.648971   7897.762388    102.750296
PR16 -14021.257875  -4658.154025  20802.607943      8.158737
PR17   -855.831822 -10657.736795  23162.724674    238.637870
PR18 -17949.944192  -8063.944799  16203.567761     -1.975180
PR19 -25440.600529  -1786.475260    505.048116    -38.347413
PR20 -17596.041377   6622.793570 -17212.131320   -382.373989
PR21   1543.040218  10587.422866 -23159.608056    -56.115792
PR22  20114.016635   7210.868186 -14031.213941    -25.590778
PR23  24989.060347  -1173.514859   4981.221687    236.693786
PR24  15981.100258  -7579.906947  18356.888768   -181.946574
PR26 -19716.269173   5963.824250 -15054.197113    -20.316288
EOF
